STARLINK-37656          
1 69649U 26143A   26197.57289856  .00028793  00000+0  52875-3 0  9993
2 69649  97.2844 241.4688 0000768 103.4982 256.6355 15.49210893  5099
STARLINK-37646          
1 69650U 26143B   26197.56377076  .00035491  00000+0  65065-3 0  9994
2 69650  97.2833 241.6354 0001271  86.5204 273.6193 15.49217495  5105
STARLINK-37749          
1 69651U 26143C   26197.57064685  .00031309  00000+0  57437-3 0  9993
2 69651  97.2840 241.6260 0000615 139.4421 220.6876 15.49223039  5101
STARLINK-37819          
1 69652U 26143D   26197.58222054  .00028565  00000+0  52475-3 0  9998
2 69652  97.2847 241.6117 0000999  99.4462 260.6902 15.49202007  5101
STARLINK-37729          
1 69653U 26143E   26197.58335648 -.02090287  00000+0 -12187-1 0  9991
2 69653  97.2823 242.0745 0001098  87.2957 286.8843 15.81664454  5189
STARLINK-37838          
1 69654U 26143F   26197.55261119  .00024331  00000+0  44727-3 0  9990
2 69654  97.2843 241.6511 0000891  51.0616 309.0715 15.49214020  5101
STARLINK-37884          
1 69655U 26143G   26197.59057741  .00026635  00000+0  48949-3 0  9998
2 69655  97.2851 241.5996 0000691  95.3927 264.7403 15.49203684  5106
STARLINK-37876          
1 69656U 26143H   26197.55311228 -.00018770  00000+0 -34644-3 0  9998
2 69656  97.2794 241.6476 0002448   2.5058 357.6205 15.49006583  5037
STARLINK-37784          
1 69657U 26143J   26197.58311515  .00028202  00000+0  51751-3 0  9998
2 69657  97.2844 241.6100 0000914 109.8061 250.3289 15.49235203  5033
STARLINK-37851          
1 69658U 26143K   26197.55519665  .00026026  00000+0  47840-3 0  9998
2 69658  97.2842 241.6473 0000544  87.7706 272.3607 15.49202595  5030
STARLINK-37229          
1 69659U 26143L   26197.57469494  .00035402  00000+0  64905-3 0  9994
2 69659  97.2841 241.6206 0001261  96.0139 264.1256 15.49215829  5048
STARLINK-37556          
1 69660U 26143M   26197.58335648  .00059427  00000+0  16364-2 0  9998
2 69660  97.2840 241.6346 0001295  93.3093 322.1055 15.36942863  5122
STARLINK-37867          
1 69661U 26143N   26196.06984291  .00015267  00000+0  28168-3 0  9995
2 69661  97.2847 240.1489 0001501  80.0224 280.1196 15.49204020  4804
STARLINK-37852          
1 69662U 26143P   26197.58721985  .00034014  00000+0  62402-3 0  9993
2 69662  97.2838 241.6044 0001121  88.1346 272.0034 15.49205670  5039
STARLINK-37554          
1 69663U 26143Q   26197.56636333 -.01279920  00000+0 -29891-1 0  9997
2 69663  97.2838 241.6310 0001658 117.2112 242.9307 15.45152645  5045
STARLINK-37830          
1 69664U 26143R   26197.58004908  .00016205  00000+0  29903-3 0  9995
2 69664  97.2836 241.6124 0001393  32.4291 327.7046 15.49185707  5039
STARLINK-37837          
1 69665U 26143S   26197.58335648  .00050175  00000+0  13830-2 0  9999
2 69665  97.2837 241.6252 0000906  81.2771 318.1804 15.36958101  5080
STARLINK-37943          
1 69666U 26143T   26197.57951019  .00026586  00000+0  48865-3 0  9991
2 69666  97.2849 241.6150 0001559  89.7679 270.3751 15.49200392  5037
STARLINK-37941          
1 69667U 26143U   26197.56688007  .00031226  00000+0  57295-3 0  9999
2 69667  97.2835 241.6298 0000678  81.9703 278.1626 15.49218248  5035
STARLINK-37930          
1 69668U 26143V   26197.56635922  .00024750  00000+0  45482-3 0  9997
2 69668  97.2844 241.6311 0000872 113.4943 246.6400 15.49220084  5036
STARLINK-37945          
1 69669U 26143W   26197.55344479  .00027983  00000+0  51401-3 0  9990
2 69669  97.2827 241.6485 0000913  56.2655 303.8683 15.49208209  5034
STARLINK-37948          
1 69670U 26143X   26197.60134403  .00028307  00000+0  51954-3 0  9996
2 69670  97.2886 241.5888 0000526 306.4353  53.6849 15.49230272  5031
STARLINK-37949          
1 69671U 26143Y   26197.57694925  .00024162  00000+0  44442-3 0  9992
2 69671  97.2847 241.6178 0000697 109.4466 250.6861 15.49198908  5039
STARLINK-37946          
1 69672U 26143Z   26197.56301459  .00034487  00000+0  63233-3 0  9999
2 69672  97.2829 241.6366 0000531  87.9083 272.2229 15.49219680  5030
TJS-26A                 
1 69674U 26144A   26193.29904564 -.00000341  00000+0  00000+0 0  9996
2 69674   6.9538 323.2302 0004208 347.4913 194.6526  1.00274367   198
STARLINK-38005          
1 69677U 26145A   26197.51079063  .00163006  00000+0  10711-2 0  9996
2 69677  97.2834  44.4094 0001306  90.0752 270.0663 15.75230078  3384
STARLINK-38009          
1 69678U 26145B   26197.50902671  .00168564  00000+0  11068-2 0  9996
2 69678  97.2839  44.4123 0001503  89.7889 270.3549 15.75232270  3380
STARLINK-37998          
1 69679U 26145C   26197.50655117  .00197948  00000+0  12927-2 0  9990
2 69679  97.2827  44.4159 0001886  83.8121 276.3360 15.75274116  3387
STARLINK-37994          
1 69680U 26145D   26197.50796858  .00142546  00000+0  93855-3 0  9994
2 69680  97.2830  44.4135 0002407  85.4323 274.7217 15.75241128  3389
