OBJECT_NAME,OBJECT_ID,EPOCH,MEAN_MOTION,ECCENTRICITY,INCLINATION,RA_OF_ASC_NODE,ARG_OF_PERICENTER,MEAN_ANOMALY,EPHEMERIS_TYPE,CLASSIFICATION_TYPE,NORAD_CAT_ID,ELEMENT_SET_NO,REV_AT_EPOCH,BSTAR,MEAN_MOTION_DOT,MEAN_MOTION_DDOT
STARLINK-37656,2026-143A,2026-07-16T13:44:58.435584,15.49210893,.00007687,97.2844,241.4688,103.4982,256.6355,0,U,69649,999,509,.52874705E-3,.28793E-3,0
STARLINK-37646,2026-143B,2026-07-16T13:31:49.793664,15.49217495,.00012718,97.2833,241.6354,86.5204,273.6193,0,U,69650,999,510,.65064644E-3,.35491E-3,0
STARLINK-37749,2026-143C,2026-07-16T13:41:43.887840,15.49223039,.00006157,97.2840,241.6260,139.4421,220.6876,0,U,69651,999,510,.5743737E-3,.31309E-3,0
STARLINK-37819,2026-143D,2026-07-16T13:58:23.854656,15.49202007,.00009998,97.2847,241.6117,99.4462,260.6902,0,U,69652,999,510,.52475054E-3,.28565E-3,0
STARLINK-37729,2026-143E,2026-07-16T14:00:01.999872,15.81664454,.00010984,97.2823,242.0745,87.2957,286.8843,0,U,69653,999,518,-.12187315E-1,-.2090287E-1,0
STARLINK-37838,2026-143F,2026-07-16T13:15:45.606816,15.49214020,.00008914,97.2843,241.6511,51.0616,309.0715,0,U,69654,999,510,.44726638E-3,.24331E-3,0
STARLINK-37884,2026-143G,2026-07-16T14:10:25.888224,15.49203684,.0000691,97.2851,241.5996,95.3927,264.7403,0,U,69655,999,510,.4894878E-3,.26635E-3,0
STARLINK-37876,2026-143H,2026-07-16T13:16:28.900992,15.49006583,.00024486,97.2794,241.6476,2.5058,357.6205,0,U,69656,999,503,-.34643783E-3,-.1877E-3,0
STARLINK-37784,2026-143J,2026-07-16T13:59:41.148960,15.49235203,.00009143,97.2844,241.6100,109.8061,250.3289,0,U,69657,999,503,.51751194E-3,.28202E-3,0
STARLINK-37851,2026-143K,2026-07-16T13:19:28.990560,15.49202595,.00005445,97.2842,241.6473,87.7706,272.3607,0,U,69658,999,503,.47840037E-3,.26026E-3,0
STARLINK-37229,2026-143L,2026-07-16T13:47:33.642816,15.49215829,.00012615,97.2841,241.6206,96.0139,264.1256,0,U,69659,999,504,.64905327E-3,.35402E-3,0
STARLINK-37556,2026-143M,2026-07-16T14:00:01.999872,15.36942863,.00012956,97.2840,241.6346,93.3093,322.1055,0,U,69660,999,512,.16364464E-2,.59427E-3,0
STARLINK-37867,2026-143N,2026-07-15T01:40:34.427424,15.49204020,.00015014,97.2847,240.1489,80.0224,280.1196,0,U,69661,999,480,.28168305E-3,.15267E-3,0
STARLINK-37852,2026-143P,2026-07-16T14:05:35.795040,15.49205670,.00011219,97.2838,241.6044,88.1346,272.0034,0,U,69662,999,503,.62401825E-3,.34014E-3,0
STARLINK-37554,2026-143Q,2026-07-16T13:35:33.791712,15.45152645,.00016587,97.2838,241.6310,117.2112,242.9307,0,U,69663,999,504,-.29891492E-1,-.127992E-1,0
STARLINK-37830,2026-143R,2026-07-16T13:55:16.240512,15.49185707,.00013939,97.2836,241.6124,32.4291,327.7046,0,U,69664,999,503,.29903143E-3,.16205E-3,0
STARLINK-37837,2026-143S,2026-07-16T14:00:01.999872,15.36958101,.0000906,97.2837,241.6252,81.2771,318.1804,0,U,69665,999,508,.13830154E-2,.50175E-3,0
STARLINK-37943,2026-143T,2026-07-16T13:54:29.680416,15.49200392,.00015592,97.2849,241.6150,89.7679,270.3751,0,U,69666,999,503,.48865132E-3,.26586E-3,0
STARLINK-37941,2026-143U,2026-07-16T13:36:18.438048,15.49218248,.00006788,97.2835,241.6298,81.9703,278.1626,0,U,69667,999,503,.57295429E-3,.31226E-3,0
STARLINK-37930,2026-143V,2026-07-16T13:35:33.436608,15.49220084,.00008729,97.2844,241.6311,113.4943,246.6400,0,U,69668,999,503,.45482101E-3,.2475E-3,0
STARLINK-37945,2026-143W,2026-07-16T13:16:57.629856,15.49208209,.00009134,97.2827,241.6485,56.2655,303.8683,0,U,69669,999,503,.51401298E-3,.27983E-3,0
STARLINK-37948,2026-143X,2026-07-16T14:25:56.124192,15.49230272,.00005267,97.2886,241.5888,306.4353,53.6849,0,U,69670,999,503,.51953683E-3,.28307E-3,0
STARLINK-37949,2026-143Y,2026-07-16T13:50:48.415200,15.49198908,.00006979,97.2847,241.6178,109.4466,250.6861,0,U,69671,999,503,.44442207E-3,.24162E-3,0
STARLINK-37946,2026-143Z,2026-07-16T13:30:44.460576,15.49219680,.0000531,97.2829,241.6366,87.9083,272.2229,0,U,69672,999,503,.63233137E-3,.34487E-3,0
TJS-26A,2026-144A,2026-07-12T07:10:37.543296,1.00274367,.0004208,6.9538,323.2302,347.4913,194.6526,0,U,69674,999,19,0,-.341E-5,0
STARLINK-38005,2026-145A,2026-07-16T12:15:32.310432,15.75230078,.00013063,97.2834,44.4094,90.0752,270.0663,0,U,69677,999,338,.10711435E-2,.163006E-2,0
STARLINK-38009,2026-145B,2026-07-16T12:12:59.907744,15.75232270,.00015031,97.2839,44.4123,89.7889,270.3549,0,U,69678,999,338,.1106804E-2,.168564E-2,0
STARLINK-37998,2026-145C,2026-07-16T12:09:26.021088,15.75274116,.00018869,97.2827,44.4159,83.8121,276.3360,0,U,69679,999,338,.12927426E-2,.197948E-2,0
STARLINK-37994,2026-145D,2026-07-16T12:11:28.485312,15.75241128,.00024072,97.2830,44.4135,85.4323,274.7217,0,U,69680,999,338,.93854634E-3,.142546E-2,0
